<?xml version="1.0" encoding="UTF-8"?><gpx xmlns="http://www.topografix.com/GPX/1/1" xmlns:xsi="http://www.w3.org/2001/XMLSchema-instance" creator="app68.eu" version="1.1"><trk><name>anterioux-thauvenay</name><trkseg><trkpt lat="45.726382" lon="2.904797"><ele>0.0</ele><name>Point 1</name></trkpt><trkpt lat="45.730617" lon="2.904403"><ele>0.0</ele><name>Point 2</name></trkpt><trkpt lat="45.735695" lon="2.905381"><ele>0.0</ele><name>Point 3</name></trkpt><trkpt lat="45.736782" lon="2.906581"><ele>0.0</ele><name>Point 4</name></trkpt><trkpt lat="45.746423" lon="2.910464"><ele>0.0</ele><name>Point 5</name></trkpt><trkpt lat="45.748775" lon="2.917798"><ele>0.0</ele><name>Point 6</name></trkpt><trkpt lat="45.749195" lon="2.918174"><ele>0.0</ele><name>Point 7</name></trkpt><trkpt lat="45.750448" lon="2.916861"><ele>0.0</ele><name>Point 8</name></trkpt><trkpt lat="45.750994" lon="2.918608"><ele>0.0</ele><name>Point 9</name></trkpt><trkpt lat="45.752236" lon="2.914618"><ele>0.0</ele><name>Point 10</name></trkpt><trkpt lat="45.752516" lon="2.909258"><ele>0.0</ele><name>Point 11</name></trkpt><trkpt lat="45.755251" lon="2.907962"><ele>0.0</ele><name>Point 12</name></trkpt><trkpt lat="45.757505" lon="2.904501"><ele>0.0</ele><name>Point 13</name></trkpt><trkpt lat="45.761356" lon="2.905252"><ele>0.0</ele><name>Point 14</name></trkpt><trkpt lat="45.763897" lon="2.902992"><ele>0.0</ele><name>Point 15</name></trkpt><trkpt lat="45.767485" lon="2.897411"><ele>0.0</ele><name>Point 16</name></trkpt><trkpt lat="45.767799" lon="2.89246"><ele>0.0</ele><name>Point 17</name></trkpt><trkpt lat="45.77133" lon="2.889251"><ele>0.0</ele><name>Point 18</name></trkpt><trkpt lat="45.776618" lon="2.878877"><ele>0.0</ele><name>Point 19</name></trkpt><trkpt lat="45.783076" lon="2.877009"><ele>0.0</ele><name>Point 20</name></trkpt><trkpt lat="45.784602" lon="2.877816"><ele>0.0</ele><name>Point 21</name></trkpt><trkpt lat="45.785372" lon="2.879115"><ele>0.0</ele><name>Point 22</name></trkpt><trkpt lat="45.785131" lon="2.880562"><ele>0.0</ele><name>Point 23</name></trkpt><trkpt lat="45.78636" lon="2.881074"><ele>0.0</ele><name>Point 24</name></trkpt><trkpt lat="45.792741" lon="2.880614"><ele>0.0</ele><name>Point 25</name></trkpt><trkpt lat="45.79345" lon="2.878767"><ele>0.0</ele><name>Point 26</name></trkpt><trkpt lat="45.793145" lon="2.875091"><ele>0.0</ele><name>Point 27</name></trkpt><trkpt lat="45.79858" lon="2.872681"><ele>0.0</ele><name>Point 28</name></trkpt><trkpt lat="45.805117" lon="2.861186"><ele>0.0</ele><name>Point 29</name></trkpt><trkpt lat="45.808261" lon="2.867901"><ele>0.0</ele><name>Point 30</name></trkpt><trkpt lat="45.809831" lon="2.869673"><ele>0.0</ele><name>Point 31</name></trkpt><trkpt lat="45.810121" lon="2.872582"><ele>0.0</ele><name>Point 32</name></trkpt><trkpt lat="45.812126" lon="2.875959"><ele>0.0</ele><name>Point 33</name></trkpt><trkpt lat="45.814845" lon="2.877613"><ele>0.0</ele><name>Point 34</name></trkpt><trkpt lat="45.818795" lon="2.877836"><ele>0.0</ele><name>Point 35</name></trkpt><trkpt lat="45.823994" lon="2.880342"><ele>0.0</ele><name>Point 36</name></trkpt><trkpt lat="45.826842" lon="2.884924"><ele>0.0</ele><name>Point 37</name></trkpt><trkpt lat="45.830769" lon="2.897816"><ele>0.0</ele><name>Point 38</name></trkpt><trkpt lat="45.834454" lon="2.900603"><ele>0.0</ele><name>Point 39</name></trkpt><trkpt lat="45.835665" lon="2.899428"><ele>0.0</ele><name>Point 40</name></trkpt><trkpt lat="45.837373" lon="2.89996"><ele>0.0</ele><name>Point 41</name></trkpt><trkpt lat="45.838593" lon="2.905128"><ele>0.0</ele><name>Point 42</name></trkpt><trkpt lat="45.84122" lon="2.905296"><ele>0.0</ele><name>Point 43</name></trkpt><trkpt lat="45.843119" lon="2.904343"><ele>0.0</ele><name>Point 44</name></trkpt><trkpt lat="45.84814" lon="2.898801"><ele>0.0</ele><name>Point 45</name></trkpt><trkpt lat="45.851147" lon="2.896792"><ele>0.0</ele><name>Point 46</name></trkpt><trkpt lat="45.857244" lon="2.909687"><ele>0.0</ele><name>Point 47</name></trkpt><trkpt lat="45.858728" lon="2.917677"><ele>0.0</ele><name>Point 48</name></trkpt><trkpt lat="45.861197" lon="2.920152"><ele>0.0</ele><name>Point 49</name></trkpt><trkpt lat="45.865916" lon="2.921791"><ele>0.0</ele><name>Point 50</name></trkpt><trkpt lat="45.873864" lon="2.922586"><ele>0.0</ele><name>Point 51</name></trkpt><trkpt lat="45.8792" lon="2.920316"><ele>0.0</ele><name>Point 52</name></trkpt><trkpt lat="45.886791" lon="2.91398"><ele>0.0</ele><name>Point 53</name></trkpt><trkpt lat="45.89119" lon="2.912729"><ele>0.0</ele><name>Point 54</name></trkpt><trkpt lat="45.900704" lon="2.924131"><ele>0.0</ele><name>Point 55</name></trkpt><trkpt lat="45.902649" lon="2.927918"><ele>0.0</ele><name>Point 56</name></trkpt><trkpt lat="45.907764" lon="2.929893"><ele>0.0</ele><name>Point 57</name></trkpt><trkpt lat="45.913209" lon="2.9391"><ele>0.0</ele><name>Point 58</name></trkpt><trkpt lat="45.915678" lon="2.93924"><ele>0.0</ele><name>Point 59</name></trkpt><trkpt lat="45.917946" lon="2.941137"><ele>0.0</ele><name>Point 60</name></trkpt><trkpt lat="45.917714" lon="2.944934"><ele>0.0</ele><name>Point 61</name></trkpt><trkpt lat="45.920887" lon="2.947216"><ele>0.0</ele><name>Point 62</name></trkpt><trkpt lat="45.923994" lon="2.951602"><ele>0.0</ele><name>Point 63</name></trkpt><trkpt lat="45.935145" lon="2.957618"><ele>0.0</ele><name>Point 64</name></trkpt><trkpt lat="45.939036" lon="2.962559"><ele>0.0</ele><name>Point 65</name></trkpt><trkpt lat="45.946173" lon="2.965177"><ele>0.0</ele><name>Point 66</name></trkpt><trkpt lat="45.94797" lon="2.96658"><ele>0.0</ele><name>Point 67</name></trkpt><trkpt lat="45.952054" lon="2.966848"><ele>0.0</ele><name>Point 68</name></trkpt><trkpt lat="45.953233" lon="2.962307"><ele>0.0</ele><name>Point 69</name></trkpt><trkpt lat="45.95271" lon="2.95978"><ele>0.0</ele><name>Point 70</name></trkpt><trkpt lat="45.954689" lon="2.956988"><ele>0.0</ele><name>Point 71</name></trkpt><trkpt lat="45.957548" lon="2.956915"><ele>0.0</ele><name>Point 72</name></trkpt><trkpt lat="45.960319" lon="2.958244"><ele>0.0</ele><name>Point 73</name></trkpt><trkpt lat="45.961487" lon="2.957035"><ele>0.0</ele><name>Point 74</name></trkpt><trkpt lat="45.961623" lon="2.958473"><ele>0.0</ele><name>Point 75</name></trkpt><trkpt lat="45.963494" lon="2.955156"><ele>0.0</ele><name>Point 76</name></trkpt><trkpt lat="45.964252" lon="2.954689"><ele>0.0</ele><name>Point 77</name></trkpt><trkpt lat="45.965657" lon="2.955311"><ele>0.0</ele><name>Point 78</name></trkpt><trkpt lat="45.969583" lon="2.950313"><ele>0.0</ele><name>Point 79</name></trkpt><trkpt lat="45.97314" lon="2.954383"><ele>0.0</ele><name>Point 80</name></trkpt><trkpt lat="45.978736" lon="2.965202"><ele>0.0</ele><name>Point 81</name></trkpt><trkpt lat="45.989109" lon="2.971096"><ele>0.0</ele><name>Point 82</name></trkpt><trkpt lat="45.994073" lon="2.970474"><ele>0.0</ele><name>Point 83</name></trkpt><trkpt lat="45.99511" lon="2.971034"><ele>0.0</ele><name>Point 84</name></trkpt><trkpt lat="45.998418" lon="2.976598"><ele>0.0</ele><name>Point 85</name></trkpt><trkpt lat="46.001346" lon="2.979335"><ele>0.0</ele><name>Point 86</name></trkpt><trkpt lat="46.002968" lon="2.983157"><ele>0.0</ele><name>Point 87</name></trkpt><trkpt lat="46.007969" lon="2.982578"><ele>0.0</ele><name>Point 88</name></trkpt><trkpt lat="46.007728" lon="2.98035"><ele>0.0</ele><name>Point 89</name></trkpt><trkpt lat="46.00916" lon="2.98099"><ele>0.0</ele><name>Point 90</name></trkpt><trkpt lat="46.019287" lon="2.973691"><ele>0.0</ele><name>Point 91</name></trkpt><trkpt lat="46.022253" lon="2.974466"><ele>0.0</ele><name>Point 92</name></trkpt><trkpt lat="46.023613" lon="2.975969"><ele>0.0</ele><name>Point 93</name></trkpt><trkpt lat="46.023507" lon="2.98398"><ele>0.0</ele><name>Point 94</name></trkpt><trkpt lat="46.020031" lon="2.99228"><ele>0.0</ele><name>Point 95</name></trkpt><trkpt lat="46.021403" lon="2.994919"><ele>0.0</ele><name>Point 96</name></trkpt><trkpt lat="46.024231" lon="2.995576"><ele>0.0</ele><name>Point 97</name></trkpt><trkpt lat="46.023525" lon="2.999593"><ele>0.0</ele><name>Point 98</name></trkpt><trkpt lat="46.02166" lon="3.002441"><ele>0.0</ele><name>Point 99</name></trkpt><trkpt lat="46.024301" lon="3.005349"><ele>0.0</ele><name>Point 100</name></trkpt><trkpt lat="46.023827" lon="3.012241"><ele>0.0</ele><name>Point 101</name></trkpt><trkpt lat="46.024703" lon="3.014259"><ele>0.0</ele><name>Point 102</name></trkpt><trkpt lat="46.022446" lon="3.016359"><ele>0.0</ele><name>Point 103</name></trkpt><trkpt lat="46.022888" lon="3.018322"><ele>0.0</ele><name>Point 104</name></trkpt><trkpt lat="46.022238" lon="3.01965"><ele>0.0</ele><name>Point 105</name></trkpt><trkpt lat="46.023159" lon="3.021057"><ele>0.0</ele><name>Point 106</name></trkpt><trkpt lat="46.024305" lon="3.021308"><ele>0.0</ele><name>Point 107</name></trkpt><trkpt lat="46.023643" lon="3.024809"><ele>0.0</ele><name>Point 108</name></trkpt><trkpt lat="46.025927" lon="3.029103"><ele>0.0</ele><name>Point 109</name></trkpt><trkpt lat="46.026283" lon="3.033742"><ele>0.0</ele><name>Point 110</name></trkpt><trkpt lat="46.028637" lon="3.03355"><ele>0.0</ele><name>Point 111</name></trkpt><trkpt lat="46.02845" lon="3.03635"><ele>0.0</ele><name>Point 112</name></trkpt><trkpt lat="46.030034" lon="3.039355"><ele>0.0</ele><name>Point 113</name></trkpt><trkpt lat="46.030411" lon="3.043205"><ele>0.0</ele><name>Point 114</name></trkpt><trkpt lat="46.03359" lon="3.044779"><ele>0.0</ele><name>Point 115</name></trkpt><trkpt lat="46.036269" lon="3.04155"><ele>0.0</ele><name>Point 116</name></trkpt><trkpt lat="46.035971" lon="3.038341"><ele>0.0</ele><name>Point 117</name></trkpt><trkpt lat="46.036632" lon="3.03694"><ele>0.0</ele><name>Point 118</name></trkpt><trkpt lat="46.035986" lon="3.033711"><ele>0.0</ele><name>Point 119</name></trkpt><trkpt lat="46.037791" lon="3.031183"><ele>0.0</ele><name>Point 120</name></trkpt><trkpt lat="46.040323" lon="3.032598"><ele>0.0</ele><name>Point 121</name></trkpt><trkpt lat="46.047029" lon="3.041131"><ele>0.0</ele><name>Point 122</name></trkpt><trkpt lat="46.045922" lon="3.053165"><ele>0.0</ele><name>Point 123</name></trkpt><trkpt lat="46.046845" lon="3.057255"><ele>0.0</ele><name>Point 124</name></trkpt><trkpt lat="46.04579" lon="3.062213"><ele>0.0</ele><name>Point 125</name></trkpt><trkpt lat="46.047151" lon="3.063449"><ele>0.0</ele><name>Point 126</name></trkpt><trkpt lat="46.048249" lon="3.070253"><ele>0.0</ele><name>Point 127</name></trkpt><trkpt lat="46.05495" lon="3.08349"><ele>0.0</ele><name>Point 128</name></trkpt><trkpt lat="46.056639" lon="3.083703"><ele>0.0</ele><name>Point 129</name></trkpt><trkpt lat="46.057522" lon="3.085069"><ele>0.0</ele><name>Point 130</name></trkpt><trkpt lat="46.06035" lon="3.086468"><ele>0.0</ele><name>Point 131</name></trkpt><trkpt lat="46.061811" lon="3.085666"><ele>0.0</ele><name>Point 132</name></trkpt><trkpt lat="46.062664" lon="3.083866"><ele>0.0</ele><name>Point 133</name></trkpt><trkpt lat="46.063886" lon="3.085882"><ele>0.0</ele><name>Point 134</name></trkpt><trkpt lat="46.064997" lon="3.08505"><ele>0.0</ele><name>Point 135</name></trkpt><trkpt lat="46.064805" lon="3.084043"><ele>0.0</ele><name>Point 136</name></trkpt><trkpt lat="46.072566" lon="3.077557"><ele>0.0</ele><name>Point 137</name></trkpt><trkpt lat="46.071741" lon="3.074769"><ele>0.0</ele><name>Point 138</name></trkpt><trkpt lat="46.072281" lon="3.073942"><ele>0.0</ele><name>Point 139</name></trkpt><trkpt lat="46.076317" lon="3.078256"><ele>0.0</ele><name>Point 140</name></trkpt><trkpt lat="46.079269" lon="3.076432"><ele>0.0</ele><name>Point 141</name></trkpt><trkpt lat="46.082837" lon="3.076472"><ele>0.0</ele><name>Point 142</name></trkpt><trkpt lat="46.084082" lon="3.07997"><ele>0.0</ele><name>Point 143</name></trkpt><trkpt lat="46.088966" lon="3.084224"><ele>0.0</ele><name>Point 144</name></trkpt><trkpt lat="46.095853" lon="3.083333"><ele>0.0</ele><name>Point 145</name></trkpt><trkpt lat="46.1017" lon="3.090031"><ele>0.0</ele><name>Point 146</name></trkpt><trkpt lat="46.109276" lon="3.092178"><ele>0.0</ele><name>Point 147</name></trkpt><trkpt lat="46.109218" lon="3.098355"><ele>0.0</ele><name>Point 148</name></trkpt><trkpt lat="46.110786" lon="3.106459"><ele>0.0</ele><name>Point 149</name></trkpt><trkpt lat="46.114142" lon="3.10535"><ele>0.0</ele><name>Point 150</name></trkpt><trkpt lat="46.115135" lon="3.113237"><ele>0.0</ele><name>Point 151</name></trkpt><trkpt lat="46.119652" lon="3.118774"><ele>0.0</ele><name>Point 152</name></trkpt><trkpt lat="46.120827" lon="3.123811"><ele>0.0</ele><name>Point 153</name></trkpt><trkpt lat="46.123063" lon="3.126382"><ele>0.0</ele><name>Point 154</name></trkpt><trkpt lat="46.123168" lon="3.127984"><ele>0.0</ele><name>Point 155</name></trkpt><trkpt lat="46.124126" lon="3.128367"><ele>0.0</ele><name>Point 156</name></trkpt><trkpt lat="46.12382" lon="3.133188"><ele>0.0</ele><name>Point 157</name></trkpt><trkpt lat="46.125963" lon="3.138752"><ele>0.0</ele><name>Point 158</name></trkpt><trkpt lat="46.125513" lon="3.141677"><ele>0.0</ele><name>Point 159</name></trkpt><trkpt lat="46.127074" lon="3.146629"><ele>0.0</ele><name>Point 160</name></trkpt><trkpt lat="46.126046" lon="3.149938"><ele>0.0</ele><name>Point 161</name></trkpt><trkpt lat="46.126846" lon="3.15618"><ele>0.0</ele><name>Point 162</name></trkpt><trkpt lat="46.123798" lon="3.157433"><ele>0.0</ele><name>Point 163</name></trkpt><trkpt lat="46.120975" lon="3.160954"><ele>0.0</ele><name>Point 164</name></trkpt><trkpt lat="46.119799" lon="3.166538"><ele>0.0</ele><name>Point 165</name></trkpt><trkpt lat="46.11968" lon="3.18831"><ele>0.0</ele><name>Point 166</name></trkpt><trkpt lat="46.12133" lon="3.189511"><ele>0.0</ele><name>Point 167</name></trkpt><trkpt lat="46.124211" lon="3.189225"><ele>0.0</ele><name>Point 168</name></trkpt><trkpt lat="46.129691" lon="3.191354"><ele>0.0</ele><name>Point 169</name></trkpt><trkpt lat="46.130922" lon="3.190279"><ele>0.0</ele><name>Point 170</name></trkpt><trkpt lat="46.134514" lon="3.190506"><ele>0.0</ele><name>Point 171</name></trkpt><trkpt lat="46.137992" lon="3.188557"><ele>0.0</ele><name>Point 172</name></trkpt><trkpt lat="46.141418" lon="3.189827"><ele>0.0</ele><name>Point 173</name></trkpt><trkpt lat="46.151744" lon="3.190332"><ele>0.0</ele><name>Point 174</name></trkpt><trkpt lat="46.155059" lon="3.193376"><ele>0.0</ele><name>Point 175</name></trkpt><trkpt lat="46.159064" lon="3.195146"><ele>0.0</ele><name>Point 176</name></trkpt><trkpt lat="46.162014" lon="3.201648"><ele>0.0</ele><name>Point 177</name></trkpt><trkpt lat="46.166245" lon="3.219583"><ele>0.0</ele><name>Point 178</name></trkpt><trkpt lat="46.170192" lon="3.225087"><ele>0.0</ele><name>Point 179</name></trkpt><trkpt lat="46.173414" lon="3.232335"><ele>0.0</ele><name>Point 180</name></trkpt><trkpt lat="46.176745" lon="3.236406"><ele>0.0</ele><name>Point 181</name></trkpt><trkpt lat="46.182223" lon="3.248403"><ele>0.0</ele><name>Point 182</name></trkpt><trkpt lat="46.182971" lon="3.249165"><ele>0.0</ele><name>Point 183</name></trkpt><trkpt lat="46.185479" lon="3.24755"><ele>0.0</ele><name>Point 184</name></trkpt><trkpt lat="46.187225" lon="3.24874"><ele>0.0</ele><name>Point 185</name></trkpt><trkpt lat="46.188735" lon="3.252549"><ele>0.0</ele><name>Point 186</name></trkpt><trkpt lat="46.194001" lon="3.257798"><ele>0.0</ele><name>Point 187</name></trkpt><trkpt lat="46.19567" lon="3.260598"><ele>0.0</ele><name>Point 188</name></trkpt><trkpt lat="46.195082" lon="3.262092"><ele>0.0</ele><name>Point 189</name></trkpt><trkpt lat="46.19797" lon="3.265736"><ele>0.0</ele><name>Point 190</name></trkpt><trkpt lat="46.199201" lon="3.26445"><ele>0.0</ele><name>Point 191</name></trkpt><trkpt lat="46.201631" lon="3.264364"><ele>0.0</ele><name>Point 192</name></trkpt><trkpt lat="46.204501" lon="3.268948"><ele>0.0</ele><name>Point 193</name></trkpt><trkpt lat="46.206967" lon="3.267797"><ele>0.0</ele><name>Point 194</name></trkpt><trkpt lat="46.210964" lon="3.271907"><ele>0.0</ele><name>Point 195</name></trkpt><trkpt lat="46.214109" lon="3.25653"><ele>0.0</ele><name>Point 196</name></trkpt><trkpt lat="46.220565" lon="3.261486"><ele>0.0</ele><name>Point 197</name></trkpt><trkpt lat="46.224411" lon="3.259921"><ele>0.0</ele><name>Point 198</name></trkpt><trkpt lat="46.234695" lon="3.26008"><ele>0.0</ele><name>Point 199</name></trkpt><trkpt lat="46.236429" lon="3.253521"><ele>0.0</ele><name>Point 200</name></trkpt><trkpt lat="46.237991" lon="3.25724"><ele>0.0</ele><name>Point 201</name></trkpt><trkpt lat="46.246622" lon="3.265008"><ele>0.0</ele><name>Point 202</name></trkpt><trkpt lat="46.263374" lon="3.274112"><ele>0.0</ele><name>Point 203</name></trkpt><trkpt lat="46.265951" lon="3.273725"><ele>0.0</ele><name>Point 204</name></trkpt><trkpt lat="46.26808" lon="3.276023"><ele>0.0</ele><name>Point 205</name></trkpt><trkpt lat="46.272195" lon="3.278243"><ele>0.0</ele><name>Point 206</name></trkpt><trkpt lat="46.274113" lon="3.274872"><ele>0.0</ele><name>Point 207</name></trkpt><trkpt lat="46.277461" lon="3.272794"><ele>0.0</ele><name>Point 208</name></trkpt><trkpt lat="46.281061" lon="3.268536"><ele>0.0</ele><name>Point 209</name></trkpt><trkpt lat="46.283966" lon="3.267905"><ele>0.0</ele><name>Point 210</name></trkpt><trkpt lat="46.289782" lon="3.268404"><ele>0.0</ele><name>Point 211</name></trkpt><trkpt lat="46.289301" lon="3.272848"><ele>0.0</ele><name>Point 212</name></trkpt><trkpt lat="46.300414" lon="3.281361"><ele>0.0</ele><name>Point 213</name></trkpt><trkpt lat="46.305052" lon="3.288453"><ele>0.0</ele><name>Point 214</name></trkpt><trkpt lat="46.305637" lon="3.288897"><ele>0.0</ele><name>Point 215</name></trkpt><trkpt lat="46.307816" lon="3.28702"><ele>0.0</ele><name>Point 216</name></trkpt><trkpt lat="46.309633" lon="3.287456"><ele>0.0</ele><name>Point 217</name></trkpt><trkpt lat="46.309863" lon="3.288565"><ele>0.0</ele><name>Point 218</name></trkpt><trkpt lat="46.308391" lon="3.291939"><ele>0.0</ele><name>Point 219</name></trkpt><trkpt lat="46.310377" lon="3.294035"><ele>0.0</ele><name>Point 220</name></trkpt><trkpt lat="46.311687" lon="3.294237"><ele>0.0</ele><name>Point 221</name></trkpt><trkpt lat="46.312264" lon="3.292945"><ele>0.0</ele><name>Point 222</name></trkpt><trkpt lat="46.315511" lon="3.292612"><ele>0.0</ele><name>Point 223</name></trkpt><trkpt lat="46.316254" lon="3.290617"><ele>0.0</ele><name>Point 224</name></trkpt><trkpt lat="46.319138" lon="3.288933"><ele>0.0</ele><name>Point 225</name></trkpt><trkpt lat="46.324817" lon="3.290532"><ele>0.0</ele><name>Point 226</name></trkpt><trkpt lat="46.329411" lon="3.293854"><ele>0.0</ele><name>Point 227</name></trkpt><trkpt lat="46.333373" lon="3.292709"><ele>0.0</ele><name>Point 228</name></trkpt><trkpt lat="46.33293" lon="3.290479"><ele>0.0</ele><name>Point 229</name></trkpt><trkpt lat="46.334978" lon="3.288932"><ele>0.0</ele><name>Point 230</name></trkpt><trkpt lat="46.338345" lon="3.292622"><ele>0.0</ele><name>Point 231</name></trkpt><trkpt lat="46.337469" lon="3.297827"><ele>0.0</ele><name>Point 232</name></trkpt><trkpt lat="46.340873" lon="3.301243"><ele>0.0</ele><name>Point 233</name></trkpt><trkpt lat="46.341934" lon="3.304286"><ele>0.0</ele><name>Point 234</name></trkpt><trkpt lat="46.341735" lon="3.308286"><ele>0.0</ele><name>Point 235</name></trkpt><trkpt lat="46.349302" lon="3.307703"><ele>0.0</ele><name>Point 236</name></trkpt><trkpt lat="46.350546" lon="3.305905"><ele>0.0</ele><name>Point 237</name></trkpt><trkpt lat="46.354117" lon="3.30404"><ele>0.0</ele><name>Point 238</name></trkpt><trkpt lat="46.356258" lon="3.305161"><ele>0.0</ele><name>Point 239</name></trkpt><trkpt lat="46.358928" lon="3.305206"><ele>0.0</ele><name>Point 240</name></trkpt><trkpt lat="46.361757" lon="3.304675"><ele>0.0</ele><name>Point 241</name></trkpt><trkpt lat="46.364256" lon="3.303192"><ele>0.0</ele><name>Point 242</name></trkpt><trkpt lat="46.370293" lon="3.305975"><ele>0.0</ele><name>Point 243</name></trkpt><trkpt lat="46.37463" lon="3.306457"><ele>0.0</ele><name>Point 244</name></trkpt><trkpt lat="46.376036" lon="3.304775"><ele>0.0</ele><name>Point 245</name></trkpt><trkpt lat="46.376355" lon="3.30242"><ele>0.0</ele><name>Point 246</name></trkpt><trkpt lat="46.378484" lon="3.305808"><ele>0.0</ele><name>Point 247</name></trkpt><trkpt lat="46.381322" lon="3.304067"><ele>0.0</ele><name>Point 248</name></trkpt><trkpt lat="46.381782" lon="3.300657"><ele>0.0</ele><name>Point 249</name></trkpt><trkpt lat="46.384312" lon="3.301595"><ele>0.0</ele><name>Point 250</name></trkpt><trkpt lat="46.386023" lon="3.303223"><ele>0.0</ele><name>Point 251</name></trkpt><trkpt lat="46.388052" lon="3.303505"><ele>0.0</ele><name>Point 252</name></trkpt><trkpt lat="46.392275" lon="3.307265"><ele>0.0</ele><name>Point 253</name></trkpt><trkpt lat="46.40596" lon="3.312324"><ele>0.0</ele><name>Point 254</name></trkpt><trkpt lat="46.411601" lon="3.312699"><ele>0.0</ele><name>Point 255</name></trkpt><trkpt lat="46.413621" lon="3.303696"><ele>0.0</ele><name>Point 256</name></trkpt><trkpt lat="46.415181" lon="3.301044"><ele>0.0</ele><name>Point 257</name></trkpt><trkpt lat="46.418528" lon="3.300093"><ele>0.0</ele><name>Point 258</name></trkpt><trkpt lat="46.422823" lon="3.295072"><ele>0.0</ele><name>Point 259</name></trkpt><trkpt lat="46.424804" lon="3.293837"><ele>0.0</ele><name>Point 260</name></trkpt><trkpt lat="46.425171" lon="3.286273"><ele>0.0</ele><name>Point 261</name></trkpt><trkpt lat="46.428044" lon="3.285762"><ele>0.0</ele><name>Point 262</name></trkpt><trkpt lat="46.431227" lon="3.287284"><ele>0.0</ele><name>Point 263</name></trkpt><trkpt lat="46.449429" lon="3.273946"><ele>0.0</ele><name>Point 264</name></trkpt><trkpt lat="46.452933" lon="3.274598"><ele>0.0</ele><name>Point 265</name></trkpt><trkpt lat="46.456074" lon="3.276417"><ele>0.0</ele><name>Point 266</name></trkpt><trkpt lat="46.463884" lon="3.266457"><ele>0.0</ele><name>Point 267</name></trkpt><trkpt lat="46.469389" lon="3.264669"><ele>0.0</ele><name>Point 268</name></trkpt><trkpt lat="46.469818" lon="3.262013"><ele>0.0</ele><name>Point 269</name></trkpt><trkpt lat="46.46996" lon="3.263303"><ele>0.0</ele><name>Point 270</name></trkpt><trkpt lat="46.474136" lon="3.263288"><ele>0.0</ele><name>Point 271</name></trkpt><trkpt lat="46.504041" lon="3.242943"><ele>0.0</ele><name>Point 272</name></trkpt><trkpt lat="46.512755" lon="3.232096"><ele>0.0</ele><name>Point 273</name></trkpt><trkpt lat="46.514568" lon="3.227102"><ele>0.0</ele><name>Point 274</name></trkpt><trkpt lat="46.52075" lon="3.218694"><ele>0.0</ele><name>Point 275</name></trkpt><trkpt lat="46.526132" lon="3.216177"><ele>0.0</ele><name>Point 276</name></trkpt><trkpt lat="46.529127" lon="3.208694"><ele>0.0</ele><name>Point 277</name></trkpt><trkpt lat="46.531595" lon="3.197977"><ele>0.0</ele><name>Point 278</name></trkpt><trkpt lat="46.534304" lon="3.195648"><ele>0.0</ele><name>Point 279</name></trkpt><trkpt lat="46.533445" lon="3.192336"><ele>0.0</ele><name>Point 280</name></trkpt><trkpt lat="46.535614" lon="3.192093"><ele>0.0</ele><name>Point 281</name></trkpt><trkpt lat="46.541618" lon="3.185033"><ele>0.0</ele><name>Point 282</name></trkpt><trkpt lat="46.545118" lon="3.1836"><ele>0.0</ele><name>Point 283</name></trkpt><trkpt lat="46.552163" lon="3.183959"><ele>0.0</ele><name>Point 284</name></trkpt><trkpt lat="46.555121" lon="3.183084"><ele>0.0</ele><name>Point 285</name></trkpt><trkpt lat="46.561463" lon="3.178028"><ele>0.0</ele><name>Point 286</name></trkpt><trkpt lat="46.567663" lon="3.175234"><ele>0.0</ele><name>Point 287</name></trkpt><trkpt lat="46.570043" lon="3.172168"><ele>0.0</ele><name>Point 288</name></trkpt><trkpt lat="46.583666" lon="3.160987"><ele>0.0</ele><name>Point 289</name></trkpt><trkpt lat="46.586045" lon="3.162995"><ele>0.0</ele><name>Point 290</name></trkpt><trkpt lat="46.587815" lon="3.162788"><ele>0.0</ele><name>Point 291</name></trkpt><trkpt lat="46.590503" lon="3.164757"><ele>0.0</ele><name>Point 292</name></trkpt><trkpt lat="46.592212" lon="3.16321"><ele>0.0</ele><name>Point 293</name></trkpt><trkpt lat="46.596858" lon="3.164299"><ele>0.0</ele><name>Point 294</name></trkpt><trkpt lat="46.599937" lon="3.163115"><ele>0.0</ele><name>Point 295</name></trkpt><trkpt lat="46.600901" lon="3.163469"><ele>0.0</ele><name>Point 296</name></trkpt><trkpt lat="46.603635" lon="3.158438"><ele>0.0</ele><name>Point 297</name></trkpt><trkpt lat="46.605814" lon="3.158575"><ele>0.0</ele><name>Point 298</name></trkpt><trkpt lat="46.606201" lon="3.153209"><ele>0.0</ele><name>Point 299</name></trkpt><trkpt lat="46.608895" lon="3.150485"><ele>0.0</ele><name>Point 300</name></trkpt><trkpt lat="46.613087" lon="3.138029"><ele>0.0</ele><name>Point 301</name></trkpt><trkpt lat="46.613319" lon="3.133703"><ele>0.0</ele><name>Point 302</name></trkpt><trkpt lat="46.617323" lon="3.127096"><ele>0.0</ele><name>Point 303</name></trkpt><trkpt lat="46.62252" lon="3.123645"><ele>0.0</ele><name>Point 304</name></trkpt><trkpt lat="46.626552" lon="3.125334"><ele>0.0</ele><name>Point 305</name></trkpt><trkpt lat="46.637226" lon="3.125126"><ele>0.0</ele><name>Point 306</name></trkpt><trkpt lat="46.639799" lon="3.125773"><ele>0.0</ele><name>Point 307</name></trkpt><trkpt lat="46.641085" lon="3.123028"><ele>0.0</ele><name>Point 308</name></trkpt><trkpt lat="46.645174" lon="3.120953"><ele>0.0</ele><name>Point 309</name></trkpt><trkpt lat="46.647509" lon="3.121969"><ele>0.0</ele><name>Point 310</name></trkpt><trkpt lat="46.652797" lon="3.121446"><ele>0.0</ele><name>Point 311</name></trkpt><trkpt lat="46.65598" lon="3.1227"><ele>0.0</ele><name>Point 312</name></trkpt><trkpt lat="46.661717" lon="3.121193"><ele>0.0</ele><name>Point 313</name></trkpt><trkpt lat="46.666609" lon="3.122098"><ele>0.0</ele><name>Point 314</name></trkpt><trkpt lat="46.670195" lon="3.120585"><ele>0.0</ele><name>Point 315</name></trkpt><trkpt lat="46.674385" lon="3.12332"><ele>0.0</ele><name>Point 316</name></trkpt><trkpt lat="46.675965" lon="3.118499"><ele>0.0</ele><name>Point 317</name></trkpt><trkpt lat="46.680951" lon="3.109993"><ele>0.0</ele><name>Point 318</name></trkpt><trkpt lat="46.682144" lon="3.10443"><ele>0.0</ele><name>Point 319</name></trkpt><trkpt lat="46.683579" lon="3.104144"><ele>0.0</ele><name>Point 320</name></trkpt><trkpt lat="46.683988" lon="3.096901"><ele>0.0</ele><name>Point 321</name></trkpt><trkpt lat="46.688359" lon="3.089631"><ele>0.0</ele><name>Point 322</name></trkpt><trkpt lat="46.68959" lon="3.084466"><ele>0.0</ele><name>Point 323</name></trkpt><trkpt lat="46.692104" lon="3.080739"><ele>0.0</ele><name>Point 324</name></trkpt><trkpt lat="46.696067" lon="3.078386"><ele>0.0</ele><name>Point 325</name></trkpt><trkpt lat="46.699817" lon="3.074836"><ele>0.0</ele><name>Point 326</name></trkpt><trkpt lat="46.705216" lon="3.074514"><ele>0.0</ele><name>Point 327</name></trkpt><trkpt lat="46.705753" lon="3.072753"><ele>0.0</ele><name>Point 328</name></trkpt><trkpt lat="46.709512" lon="3.068523"><ele>0.0</ele><name>Point 329</name></trkpt><trkpt lat="46.714378" lon="3.065015"><ele>0.0</ele><name>Point 330</name></trkpt><trkpt lat="46.722589" lon="3.061467"><ele>0.0</ele><name>Point 331</name></trkpt><trkpt lat="46.734198" lon="3.049054"><ele>0.0</ele><name>Point 332</name></trkpt><trkpt lat="46.735943" lon="3.042107"><ele>0.0</ele><name>Point 333</name></trkpt><trkpt lat="46.738801" lon="3.038709"><ele>0.0</ele><name>Point 334</name></trkpt><trkpt lat="46.74565" lon="3.040366"><ele>0.0</ele><name>Point 335</name></trkpt><trkpt lat="46.753246" lon="3.037891"><ele>0.0</ele><name>Point 336</name></trkpt><trkpt lat="46.756339" lon="3.03983"><ele>0.0</ele><name>Point 337</name></trkpt><trkpt lat="46.760288" lon="3.03277"><ele>0.0</ele><name>Point 338</name></trkpt><trkpt lat="46.7633" lon="3.030515"><ele>0.0</ele><name>Point 339</name></trkpt><trkpt lat="46.765209" lon="3.030961"><ele>0.0</ele><name>Point 340</name></trkpt><trkpt lat="46.766046" lon="3.027622"><ele>0.0</ele><name>Point 341</name></trkpt><trkpt lat="46.769869" lon="3.024952"><ele>0.0</ele><name>Point 342</name></trkpt><trkpt lat="46.774056" lon="3.025212"><ele>0.0</ele><name>Point 343</name></trkpt><trkpt lat="46.777082" lon="3.023176"><ele>0.0</ele><name>Point 344</name></trkpt><trkpt lat="46.780115" lon="3.023953"><ele>0.0</ele><name>Point 345</name></trkpt><trkpt lat="46.78505" lon="3.022952"><ele>0.0</ele><name>Point 346</name></trkpt><trkpt lat="46.78864" lon="3.023111"><ele>0.0</ele><name>Point 347</name></trkpt><trkpt lat="46.800118" lon="3.026656"><ele>0.0</ele><name>Point 348</name></trkpt><trkpt lat="46.804634" lon="3.025615"><ele>0.0</ele><name>Point 349</name></trkpt><trkpt lat="46.807875" lon="3.026053"><ele>0.0</ele><name>Point 350</name></trkpt><trkpt lat="46.809423" lon="3.021153"><ele>0.0</ele><name>Point 351</name></trkpt><trkpt lat="46.810408" lon="3.020446"><ele>0.0</ele><name>Point 352</name></trkpt><trkpt lat="46.81422" lon="3.021946"><ele>0.0</ele><name>Point 353</name></trkpt><trkpt lat="46.819073" lon="3.029615"><ele>0.0</ele><name>Point 354</name></trkpt><trkpt lat="46.820657" lon="3.03082"><ele>0.0</ele><name>Point 355</name></trkpt><trkpt lat="46.827063" lon="3.032137"><ele>0.0</ele><name>Point 356</name></trkpt><trkpt lat="46.832074" lon="3.035138"><ele>0.0</ele><name>Point 357</name></trkpt><trkpt lat="46.835525" lon="3.034177"><ele>0.0</ele><name>Point 358</name></trkpt><trkpt lat="46.836938" lon="3.032966"><ele>0.0</ele><name>Point 359</name></trkpt><trkpt lat="46.842339" lon="3.042289"><ele>0.0</ele><name>Point 360</name></trkpt><trkpt lat="46.84335" lon="3.045546"><ele>0.0</ele><name>Point 361</name></trkpt><trkpt lat="46.844513" lon="3.045315"><ele>0.0</ele><name>Point 362</name></trkpt><trkpt lat="46.846689" lon="3.043086"><ele>0.0</ele><name>Point 363</name></trkpt><trkpt lat="46.85075" lon="3.042063"><ele>0.0</ele><name>Point 364</name></trkpt><trkpt lat="46.852833" lon="3.044739"><ele>0.0</ele><name>Point 365</name></trkpt><trkpt lat="46.85511" lon="3.042424"><ele>0.0</ele><name>Point 366</name></trkpt><trkpt lat="46.861214" lon="3.039582"><ele>0.0</ele><name>Point 367</name></trkpt><trkpt lat="46.863293" lon="3.039682"><ele>0.0</ele><name>Point 368</name></trkpt><trkpt lat="46.864398" lon="3.037047"><ele>0.0</ele><name>Point 369</name></trkpt><trkpt lat="46.865544" lon="3.038715"><ele>0.0</ele><name>Point 370</name></trkpt><trkpt lat="46.86824" lon="3.038601"><ele>0.0</ele><name>Point 371</name></trkpt><trkpt lat="46.870365" lon="3.040033"><ele>0.0</ele><name>Point 372</name></trkpt><trkpt lat="46.87499" lon="3.045698"><ele>0.0</ele><name>Point 373</name></trkpt><trkpt lat="46.878237" lon="3.045674"><ele>0.0</ele><name>Point 374</name></trkpt><trkpt lat="46.880005" lon="3.04703"><ele>0.0</ele><name>Point 375</name></trkpt><trkpt lat="46.88088" lon="3.049043"><ele>0.0</ele><name>Point 376</name></trkpt><trkpt lat="46.884622" lon="3.049264"><ele>0.0</ele><name>Point 377</name></trkpt><trkpt lat="46.887875" lon="3.051274"><ele>0.0</ele><name>Point 378</name></trkpt><trkpt lat="46.889301" lon="3.051367"><ele>0.0</ele><name>Point 379</name></trkpt><trkpt lat="46.891093" lon="3.049071"><ele>0.0</ele><name>Point 380</name></trkpt><trkpt lat="46.895641" lon="3.048695"><ele>0.0</ele><name>Point 381</name></trkpt><trkpt lat="46.89714" lon="3.047081"><ele>0.0</ele><name>Point 382</name></trkpt><trkpt lat="46.900706" lon="3.047065"><ele>0.0</ele><name>Point 383</name></trkpt><trkpt lat="46.90484" lon="3.048444"><ele>0.0</ele><name>Point 384</name></trkpt><trkpt lat="46.906961" lon="3.047665"><ele>0.0</ele><name>Point 385</name></trkpt><trkpt lat="46.916805" lon="3.051066"><ele>0.0</ele><name>Point 386</name></trkpt><trkpt lat="46.920186" lon="3.054653"><ele>0.0</ele><name>Point 387</name></trkpt><trkpt lat="46.929233" lon="3.058951"><ele>0.0</ele><name>Point 388</name></trkpt><trkpt lat="46.933874" lon="3.059754"><ele>0.0</ele><name>Point 389</name></trkpt><trkpt lat="46.945965" lon="3.059192"><ele>0.0</ele><name>Point 390</name></trkpt><trkpt lat="46.946516" lon="3.056711"><ele>0.0</ele><name>Point 391</name></trkpt><trkpt lat="46.95488" lon="3.055517"><ele>0.0</ele><name>Point 392</name></trkpt><trkpt lat="46.957238" lon="3.053849"><ele>0.0</ele><name>Point 393</name></trkpt><trkpt lat="46.966318" lon="3.050213"><ele>0.0</ele><name>Point 394</name></trkpt><trkpt lat="46.967522" lon="3.048691"><ele>0.0</ele><name>Point 395</name></trkpt><trkpt lat="46.971599" lon="3.047599"><ele>0.0</ele><name>Point 396</name></trkpt><trkpt lat="46.974578" lon="3.043611"><ele>0.0</ele><name>Point 397</name></trkpt><trkpt lat="46.978842" lon="3.045477"><ele>0.0</ele><name>Point 398</name></trkpt><trkpt lat="46.982533" lon="3.044548"><ele>0.0</ele><name>Point 399</name></trkpt><trkpt lat="46.98375" lon="3.045785"><ele>0.0</ele><name>Point 400</name></trkpt><trkpt lat="46.993407" lon="3.04729"><ele>0.0</ele><name>Point 401</name></trkpt><trkpt lat="46.997712" lon="3.041805"><ele>0.0</ele><name>Point 402</name></trkpt><trkpt lat="47.001522" lon="3.039044"><ele>0.0</ele><name>Point 403</name></trkpt><trkpt lat="47.005949" lon="3.038376"><ele>0.0</ele><name>Point 404</name></trkpt><trkpt lat="47.007655" lon="3.03737"><ele>0.0</ele><name>Point 405</name></trkpt><trkpt lat="47.013021" lon="3.037407"><ele>0.0</ele><name>Point 406</name></trkpt><trkpt lat="47.02089" lon="3.031232"><ele>0.0</ele><name>Point 407</name></trkpt><trkpt lat="47.026745" lon="3.031816"><ele>0.0</ele><name>Point 408</name></trkpt><trkpt lat="47.028373" lon="3.02986"><ele>0.0</ele><name>Point 409</name></trkpt><trkpt lat="47.033346" lon="3.029726"><ele>0.0</ele><name>Point 410</name></trkpt><trkpt lat="47.037199" lon="3.031771"><ele>0.0</ele><name>Point 411</name></trkpt><trkpt lat="47.040579" lon="3.031628"><ele>0.0</ele><name>Point 412</name></trkpt><trkpt lat="47.043347" lon="3.029505"><ele>0.0</ele><name>Point 413</name></trkpt><trkpt lat="47.048518" lon="3.027764"><ele>0.0</ele><name>Point 414</name></trkpt><trkpt lat="47.051846" lon="3.025561"><ele>0.0</ele><name>Point 415</name></trkpt><trkpt lat="47.053941" lon="3.021774"><ele>0.0</ele><name>Point 416</name></trkpt><trkpt lat="47.056661" lon="3.019805"><ele>0.0</ele><name>Point 417</name></trkpt><trkpt lat="47.058039" lon="3.023926"><ele>0.0</ele><name>Point 418</name></trkpt><trkpt lat="47.062429" lon="3.01867"><ele>0.0</ele><name>Point 419</name></trkpt><trkpt lat="47.069414" lon="3.013523"><ele>0.0</ele><name>Point 420</name></trkpt><trkpt lat="47.075734" lon="3.010704"><ele>0.0</ele><name>Point 421</name></trkpt><trkpt lat="47.081068" lon="3.005531"><ele>0.0</ele><name>Point 422</name></trkpt><trkpt lat="47.086114" lon="3.004317"><ele>0.0</ele><name>Point 423</name></trkpt><trkpt lat="47.091272" lon="3.006918"><ele>0.0</ele><name>Point 424</name></trkpt><trkpt lat="47.093425" lon="3.00665"><ele>0.0</ele><name>Point 425</name></trkpt><trkpt lat="47.094141" lon="3.005298"><ele>0.0</ele><name>Point 426</name></trkpt><trkpt lat="47.096821" lon="3.006488"><ele>0.0</ele><name>Point 427</name></trkpt><trkpt lat="47.098747" lon="3.009045"><ele>0.0</ele><name>Point 428</name></trkpt><trkpt lat="47.100742" lon="3.009819"><ele>0.0</ele><name>Point 429</name></trkpt><trkpt lat="47.119859" lon="3.00845"><ele>0.0</ele><name>Point 430</name></trkpt><trkpt lat="47.138795" lon="3.003767"><ele>0.0</ele><name>Point 431</name></trkpt><trkpt lat="47.144499" lon="2.999693"><ele>0.0</ele><name>Point 432</name></trkpt><trkpt lat="47.1491" lon="2.99387"><ele>0.0</ele><name>Point 433</name></trkpt><trkpt lat="47.15487" lon="2.991818"><ele>0.0</ele><name>Point 434</name></trkpt><trkpt lat="47.159122" lon="2.991772"><ele>0.0</ele><name>Point 435</name></trkpt><trkpt lat="47.16602" lon="2.988965"><ele>0.0</ele><name>Point 436</name></trkpt><trkpt lat="47.167995" lon="2.991163"><ele>0.0</ele><name>Point 437</name></trkpt><trkpt lat="47.185497" lon="2.984849"><ele>0.0</ele><name>Point 438</name></trkpt><trkpt lat="47.187402" lon="2.982746"><ele>0.0</ele><name>Point 439</name></trkpt><trkpt lat="47.194457" lon="2.980141"><ele>0.0</ele><name>Point 440</name></trkpt><trkpt lat="47.200092" lon="2.976146"><ele>0.0</ele><name>Point 441</name></trkpt><trkpt lat="47.200392" lon="2.977403"><ele>0.0</ele><name>Point 442</name></trkpt><trkpt lat="47.200999" lon="2.977278"><ele>0.0</ele><name>Point 443</name></trkpt><trkpt lat="47.21399" lon="2.965691"><ele>0.0</ele><name>Point 444</name></trkpt><trkpt lat="47.214437" lon="2.964182"><ele>0.0</ele><name>Point 445</name></trkpt><trkpt lat="47.21823" lon="2.961957"><ele>0.0</ele><name>Point 446</name></trkpt><trkpt lat="47.219825" lon="2.959162"><ele>0.0</ele><name>Point 447</name></trkpt><trkpt lat="47.223882" lon="2.957173"><ele>0.0</ele><name>Point 448</name></trkpt><trkpt lat="47.226318" lon="2.953589"><ele>0.0</ele><name>Point 449</name></trkpt><trkpt lat="47.22637" lon="2.952272"><ele>0.0</ele><name>Point 450</name></trkpt><trkpt lat="47.232929" lon="2.949574"><ele>0.0</ele><name>Point 451</name></trkpt><trkpt lat="47.234662" lon="2.949847"><ele>0.0</ele><name>Point 452</name></trkpt><trkpt lat="47.236897" lon="2.948939"><ele>0.0</ele><name>Point 453</name></trkpt><trkpt lat="47.239005" lon="2.946376"><ele>0.0</ele><name>Point 454</name></trkpt><trkpt lat="47.239888" lon="2.946366"><ele>0.0</ele><name>Point 455</name></trkpt><trkpt lat="47.245751" lon="2.941427"><ele>0.0</ele><name>Point 456</name></trkpt><trkpt lat="47.252623" lon="2.939088"><ele>0.0</ele><name>Point 457</name></trkpt><trkpt lat="47.257645" lon="2.938883"><ele>0.0</ele><name>Point 458</name></trkpt><trkpt lat="47.258178" lon="2.937596"><ele>0.0</ele><name>Point 459</name></trkpt><trkpt lat="47.261703" lon="2.936369"><ele>0.0</ele><name>Point 460</name></trkpt><trkpt lat="47.267941" lon="2.931872"><ele>0.0</ele><name>Point 461</name></trkpt><trkpt lat="47.270353" lon="2.931572"><ele>0.0</ele><name>Point 462</name></trkpt><trkpt lat="47.27125" lon="2.929655"><ele>0.0</ele><name>Point 463</name></trkpt><trkpt lat="47.275979" lon="2.925737"><ele>0.0</ele><name>Point 464</name></trkpt><trkpt lat="47.277248" lon="2.926373"><ele>0.0</ele><name>Point 465</name></trkpt><trkpt lat="47.277445" lon="2.927761"><ele>0.0</ele><name>Point 466</name></trkpt><trkpt lat="47.279357" lon="2.925243"><ele>0.0</ele><name>Point 467</name></trkpt><trkpt lat="47.281888" lon="2.91592"><ele>0.0</ele><name>Point 468</name></trkpt><trkpt lat="47.274556" lon="2.902829"><ele>0.0</ele><name>Point 469</name></trkpt><trkpt lat="47.273819" lon="2.89694"><ele>0.0</ele><name>Point 470</name></trkpt><trkpt lat="47.279198" lon="2.888926"><ele>0.0</ele><name>Point 471</name></trkpt><trkpt lat="47.282633" lon="2.885936"><ele>0.0</ele><name>Point 472</name></trkpt><trkpt lat="47.284796" lon="2.885328"><ele>0.0</ele><name>Point 473</name></trkpt><trkpt lat="47.290393" lon="2.880928"><ele>0.0</ele><name>Point 474</name></trkpt><trkpt lat="47.298509" lon="2.87764"><ele>0.0</ele><name>Point 475</name></trkpt><trkpt lat="47.300258" lon="2.87514"><ele>0.0</ele><name>Point 476</name></trkpt><trkpt lat="47.297384" lon="2.868775"><ele>0.0</ele><name>Point 477</name></trkpt><trkpt lat="47.297959" lon="2.866388"><ele>0.0</ele><name>Point 478</name></trkpt><trkpt lat="47.300541" lon="2.866746"><ele>0.0</ele><name>Point 479</name></trkpt></trkseg></trk></gpx>